QIANFAN-60              
1 62790U 25016F   25254.21955001  .00000067  00000+0  86063-4 0  9998
2 62790  88.9761 112.6593 0013416 250.8982 109.0717 13.50965015 34738
QIANFAN-61              
1 62791U 25016G   25254.23197038  .00000070  00000+0  89628-4 0  9993
2 62791  88.9829 112.7531 0012894 249.2370 110.7400 13.50970562 34752
QIANFAN-62              
1 62792U 25016H   25254.23605706  .00000073  00000+0  94220-4 0  9997
2 62792  88.9775 112.6711 0014274 249.7926 110.1690 13.50964595 34741
QIANFAN-63              
1 62793U 25016J   25253.73010455  .00000075  00000+0  98881-4 0  9992
2 62793  88.9785 112.6708 0014112 254.4536 105.5057 13.50354058 34719
QIANFAN-64              
1 62794U 25016K   25254.24016517  .00000070  00000+0  90472-4 0  9998
2 62794  88.9769 112.6056 0011928 247.5033 112.4855 13.50964239 34772
QIANFAN-65              
1 62795U 25016L   25254.22372517  .00000063  00000+0  78640-4 0  9997
2 62795  88.9765 112.6336 0012094 249.7068 110.2783 13.50968074 34752
QIANFAN-66              
1 62796U 25016M   25254.17845974  .00000065  00000+0  81645-4 0  9995
2 62796  88.9785 112.5903 0013235 244.9242 115.0536 13.50963327 34792
QIANFAN-67              
1 62797U 25016N   25254.18247236  .00000060  00000+0  74688-4 0  9998
2 62797  88.9775 112.6245 0013178 252.7817 107.1892 13.50964689 34769
QIANFAN-68              
1 62798U 25016P   25253.66813627  .00000032  00000+0  31823-4 0  9997
2 62798  88.9779 112.7222 0013797 252.5553 107.4090 13.50961698 34672
QIANFAN-69              
1 62799U 25016Q   25254.19076012  .00000078  00000+0  10287-3 0  9996
2 62799  88.9757 112.5548 0013984 251.9479 108.0149 13.50964909 34788
QIANFAN-70              
1 62800U 25016R   25254.20719340  .00000073  00000+0  94537-4 0  9995
2 62800  88.9778 112.6719 0013628 240.9758 119.0028 13.50969068 34743
QIANFAN-71              
1 62801U 25016S   25254.20315763  .00000067  00000+0  84636-4 0  9999
2 62801  88.9772 112.6576 0013891 255.9157 104.0450 13.50968554 34742
QIANFAN-72              
1 62802U 25016T   25254.19900696  .00000073  00000+0  94332-4 0  9994
2 62802  88.9762 112.6754 0017314 263.1270  96.7912 13.50964032 34737
QIANFAN-73              
1 63159U 25046A   25254.24665232  .00000159  00000+0  22749-3 0  9990
2 63159  88.9848 329.5763 0015694  39.4169 320.8121 13.50971567 34922
QIANFAN-74              
1 63160U 25046B   25254.23008735  .00000163  00000+0  23385-3 0  9992
2 63160  88.9848 329.4663 0002186 109.0733 251.0655 13.50977449 34983
QIANFAN-75              
1 63161U 25046C   25254.21787012  .00000156  00000+0  22306-3 0  9997
2 63161  88.9849 329.6998 0016886  41.9949 318.2494 13.50974027 34855
QIANFAN-76              
1 63162U 25046D   25254.21368937  .00000144  00000+0  20368-3 0  9992
2 63162  88.9849 329.6813 0014497  43.8744 316.3556 13.50969811 34866
QIANFAN-77              
1 63163U 25046E   25254.22608260  .00000333  00000+0  23310-3 0  9990
2 63163  88.9844 328.4467 0014755  19.0739 341.0987 13.96041012 35543
QIANFAN-78              
1 63164U 25046F   25254.18081422  .00000157  00000+0  22363-3 0  9992
2 63164  88.9848 329.5497 0015943  45.4187 314.8262 13.50973488 34930
QIANFAN-79              
1 63165U 25046G   25254.20946750  .00000164  00000+0  23568-3 0  9996
2 63165  88.9852 329.6506 0015567  43.9237 316.3149 13.50975786 34887
QIANFAN-80              
1 63166U 25046H   25254.22604348  .00000160  00000+0  22864-3 0  9997
2 63166  88.9848 329.3584 0014725  48.4549 311.7862 13.50975829 35045
QIANFAN-81              
1 63167U 25046J   25254.20545845  .00000165  00000+0  23645-3 0  9995
2 63167  88.9849 329.4289 0015278  37.0063 323.2138 13.50974680 34990
QIANFAN-82              
1 63168U 25046K   25254.23832963  .00000167  00000+0  23942-3 0  9991
2 63168  88.9849 329.4690 0013742  45.5338 314.6934 13.50971525 34982
QIANFAN-83              
1 63169U 25046L   25254.20326514  .00000184  00000+0  22315-3 0  9991
2 63169  88.9848 329.4304 0014679  35.7626 324.4512 13.61948742 35007
QIANFAN-84              
1 63170U 25046M   25254.19293250  .00000137  00000+0  19338-3 0  9990
2 63170  88.9849 329.6067 0016548  40.5649 319.6732 13.50977334 34909
QIANFAN-85              
1 63171U 25046N   25254.18904369  .00000159  00000+0  22809-3 0  9991
2 63171  88.9848 329.4792 0014055  44.4250 315.8026 13.50972614 34971
QIANFAN-86              
1 63172U 25046P   25254.19726090  .00000164  00000+0  23471-3 0  9998
2 63172  88.9850 329.3383 0012112  49.9636 310.2576 13.50973160 35056
QIANFAN-87              
1 63173U 25046Q   25254.24250414  .00000165  00000+0  23622-3 0  9996
2 63173  88.9846 329.4488 0012620  44.5424 315.6739 13.50969405 34998
QIANFAN-88              
1 63174U 25046R   25254.18489303  .00000154  00000+0  22046-3 0  9998
2 63174  88.9849 329.4070 0013292  51.7799 308.4547 13.50976965 35010
QIANFAN-89              
1 63175U 25046S   25254.22178148  .00000157  00000+0  22371-3 0  9990
2 63175  88.9849 329.5922 0017225  40.6569 319.5864 13.50977446 34918
QIANFAN-90              
1 63176U 25046T   25254.25059811  .00000161  00000+0  23074-3 0  9995
2 63176  88.9849 329.5615 0014125  40.4671 319.7528 13.50976493 34938
